{
  "type": "FeatureCollection",
  "features": [
    {
      "type": "Feature",
      "properties": {
        "norad_id": 35208,
        "name": "FENGYUN 1C DEB",
        "group": "fengyun-1c-debris",
        "lat": -67.7444078436288,
        "lon": 33.9408761412035,
        "alt_km": 965.4024198741736,
        "timestamp": "2025-12-18T08:58:43.699293+00:00",
        "meta_object_name": "FENGYUN 1C DEB",
        "meta_object_id": "1999-025DPQ",
        "meta_epoch": "2025-12-12T19:29:45.564288",
        "meta_mean_motion": 13.99657071,
        "meta_eccentricity": 0.01013151,
        "meta_inclination": 98.903,
        "meta_ra_of_asc_node": 6.0094,
        "meta_arg_of_pericenter": 156.4473,
        "meta_mean_anomaly": 204.1379,
        "meta_ephemeris_type": 0,
        "meta_classification_type": "U",
        "meta_norad_cat_id": 35208,
        "meta_element_set_no": 999,
        "meta_rev_at_epoch": 90564,
        "meta_bstar": 0.0013122763,
        "meta_mean_motion_dot": 1.963e-05,
        "meta_mean_motion_ddot": 0,
        "tle_line1": "1 35208U 99025DPQ 25346.81233292  .00001963  00000+0  13123-2 0  9993",
        "tle_line2": "2 35208  98.9030   6.0094 0101315 156.4473 204.1379 13.99657071905647"
      },
      "geometry": {
        "type": "Point",
        "coordinates": [
          33.9408761412035,
          -67.7444078436288
        ]
      }
    },
    {
      "type": "Feature",
      "properties": {
        "norad_id": 35210,
        "name": "FENGYUN 1C DEB",
        "group": "fengyun-1c-debris",
        "lat": -17.994426538656345,
        "lon": 173.47515193865593,
        "alt_km": 752.0693485307174,
        "timestamp": "2025-12-18T08:58:43.699304+00:00",
        "meta_object_name": "FENGYUN 1C DEB",
        "meta_object_id": "1999-025DPS",
        "meta_epoch": "2025-12-12T12:04:35.156352",
        "meta_mean_motion": 14.33629927,
        "meta_eccentricity": 0.00493258,
        "meta_inclination": 99.0992,
        "meta_ra_of_asc_node": 350.2888,
        "meta_arg_of_pericenter": 239.8273,
        "meta_mean_anomaly": 274.0765,
        "meta_ephemeris_type": 0,
        "meta_classification_type": "U",
        "meta_norad_cat_id": 35210,
        "meta_element_set_no": 999,
        "meta_rev_at_epoch": 90119,
        "meta_bstar": 0.0036086515,
        "meta_mean_motion_dot": 0.00010103,
        "meta_mean_motion_ddot": 0,
        "tle_line1": "1 35210U 99025DPS 25346.50318468  .00010103  00000+0  36087-2 0  9991",
        "tle_line2": "2 35210  99.0992 350.2888 0049325 239.8273 274.0765 14.33629927901199"
      },
      "geometry": {
        "type": "Point",
        "coordinates": [
          173.47515193865593,
          -17.994426538656345
        ]
      }
    },
    {
      "type": "Feature",
      "properties": {
        "norad_id": 35217,
        "name": "FENGYUN 1C DEB",
        "group": "fengyun-1c-debris",
        "lat": -30.822303937337136,
        "lon": -84.08853852707094,
        "alt_km": 889.4342418480337,
        "timestamp": "2025-12-18T08:58:43.699314+00:00",
        "meta_object_name": "FENGYUN 1C DEB",
        "meta_object_id": "1999-025DPZ",
        "meta_epoch": "2025-12-16T00:31:46.822080",
        "meta_mean_motion": 13.57523725,
        "meta_eccentricity": 0.03020457,
        "meta_inclination": 101.8758,
        "meta_ra_of_asc_node": 265.8616,
        "meta_arg_of_pericenter": 288.6471,
        "meta_mean_anomaly": 68.209,
        "meta_ephemeris_type": 0,
        "meta_classification_type": "U",
        "meta_norad_cat_id": 35217,
        "meta_element_set_no": 999,
        "meta_rev_at_epoch": 61264,
        "meta_bstar": 0.0019543408,
        "meta_mean_motion_dot": 1.822e-05,
        "meta_mean_motion_ddot": 0,
        "tle_line1": "1 35217U 99025DPZ 25350.02206970  .00001822  00000+0  19543-2 0  9990",
        "tle_line2": "2 35217 101.8758 265.8616 0302045 288.6471  68.2090 13.57523725612648"
      },
      "geometry": {
        "type": "Point",
        "coordinates": [
          -84.08853852707094,
          -30.822303937337136
        ]
      }
    },
    {
      "type": "Feature",
      "properties": {
        "norad_id": 35220,
        "name": "FENGYUN 1C DEB",
        "group": "fengyun-1c-debris",
        "lat": 21.128373096012677,
        "lon": 59.025222561699,
        "alt_km": 816.6546573646874,
        "timestamp": "2025-12-18T08:58:43.699324+00:00",
        "meta_object_name": "FENGYUN 1C DEB",
        "meta_object_id": "1999-025DQC",
        "meta_epoch": "2025-12-17T15:59:55.105728",
        "meta_mean_motion": 14.22592143,
        "meta_eccentricity": 0.00434644,
        "meta_inclination": 99.0288,
        "meta_ra_of_asc_node": 61.8233,
        "meta_arg_of_pericenter": 292.8238,
        "meta_mean_anomaly": 66.8352,
        "meta_ephemeris_type": 0,
        "meta_classification_type": "U",
        "meta_norad_cat_id": 35220,
        "meta_element_set_no": 999,
        "meta_rev_at_epoch": 63253,
        "meta_bstar": 0.0012376652,
        "meta_mean_motion_dot": 2.746e-05,
        "meta_mean_motion_ddot": 0,
        "tle_line1": "1 35220U 99025DQC 25351.66661002  .00002746  00000+0  12377-2 0  9990",
        "tle_line2": "2 35220  99.0288  61.8233 0043464 292.8238  66.8352 14.22592143632530"
      },
      "geometry": {
        "type": "Point",
        "coordinates": [
          59.025222561699,
          21.128373096012677
        ]
      }
    },
    {
      "type": "Feature",
      "properties": {
        "norad_id": 35223,
        "name": "FENGYUN 1C DEB",
        "group": "fengyun-1c-debris",
        "lat": -51.41203904477712,
        "lon": 144.18980188557617,
        "alt_km": 585.4321879689969,
        "timestamp": "2025-12-18T08:58:43.699334+00:00",
        "meta_object_name": "FENGYUN 1C DEB",
        "meta_object_id": "1999-025DQF",
        "meta_epoch": "2025-12-15T21:52:13.271808",
        "meta_mean_motion": 14.89040296,
        "meta_eccentricity": 0.01278562,
        "meta_inclination": 98.9714,
        "meta_ra_of_asc_node": 332.82,
        "meta_arg_of_pericenter": 316.3242,
        "meta_mean_anomaly": 42.7908,
        "meta_ephemeris_type": 0,
        "meta_classification_type": "U",
        "meta_norad_cat_id": 35223,
        "meta_element_set_no": 999,
        "meta_rev_at_epoch": 93929,
        "meta_bstar": 0.0007126832,
        "meta_mean_motion_dot": 7.747e-05,
        "meta_mean_motion_ddot": 0,
        "tle_line1": "1 35223U 99025DQF 25349.91126472  .00007747  00000+0  71268-3 0  9996",
        "tle_line2": "2 35223  98.9714 332.8200 0127856 316.3242  42.7908 14.89040296939298"
      },
      "geometry": {
        "type": "Point",
        "coordinates": [
          144.18980188557617,
          -51.41203904477712
        ]
      }
    },
    {
      "type": "Feature",
      "properties": {
        "norad_id": 35229,
        "name": "FENGYUN 1C DEB",
        "group": "fengyun-1c-debris",
        "lat": 45.27340605374547,
        "lon": -99.87214941834195,
        "alt_km": 671.4232975331715,
        "timestamp": "2025-12-18T08:58:43.699344+00:00",
        "meta_object_name": "FENGYUN 1C DEB",
        "meta_object_id": "1999-025DQM",
        "meta_epoch": "2025-12-15T11:19:27.070176",
        "meta_mean_motion": 14.60835555,
        "meta_eccentricity": 0.00466086,
        "meta_inclination": 98.4587,
        "meta_ra_of_asc_node": 68.5229,
        "meta_arg_of_pericenter": 206.4488,
        "meta_mean_anomaly": 153.4333,
        "meta_ephemeris_type": 0,
        "meta_classification_type": "U",
        "meta_norad_cat_id": 35229,
        "meta_element_set_no": 999,
        "meta_rev_at_epoch": 64546,
        "meta_bstar": 0.0033787408,
        "meta_mean_motion_dot": 0.00016753,
        "meta_mean_motion_ddot": 0,
        "tle_line1": "1 35229U 99025DQM 25349.47184109  .00016753  00000+0  33787-2 0  9994",
        "tle_line2": "2 35229  98.4587  68.5229 0046608 206.4488 153.4333 14.60835555645461"
      },
      "geometry": {
        "type": "Point",
        "coordinates": [
          -99.87214941834195,
          45.27340605374547
        ]
      }
    },
    {
      "type": "Feature",
      "properties": {
        "norad_id": 35231,
        "name": "FENGYUN 1C DEB",
        "group": "fengyun-1c-debris",
        "lat": -63.40854279335868,
        "lon": -162.44920513917626,
        "alt_km": 878.4395046680802,
        "timestamp": "2025-12-18T08:58:43.699354+00:00",
        "meta_object_name": "FENGYUN 1C DEB",
        "meta_object_id": "1999-025DQP",
        "meta_epoch": "2025-12-16T08:17:37.824288",
        "meta_mean_motion": 14.14528782,
        "meta_eccentricity": 0.00380008,
        "meta_inclination": 98.7202,
        "meta_ra_of_asc_node": 33.4249,
        "meta_arg_of_pericenter": 75.1339,
        "meta_mean_anomaly": 285.4039,
        "meta_ephemeris_type": 0,
        "meta_classification_type": "U",
        "meta_norad_cat_id": 35231,
        "meta_element_set_no": 999,
        "meta_rev_at_epoch": 91553,
        "meta_bstar": 2.5310869e-05,
        "meta_mean_motion_dot": 6e-08,
        "meta_mean_motion_ddot": 0,
        "tle_line1": "1 35231U 99025DQP 25350.34557667  .00000006  00000+0  25311-4 0  9998",
        "tle_line2": "2 35231  98.7202  33.4249 0038000  75.1339 285.4039 14.14528782915534"
      },
      "geometry": {
        "type": "Point",
        "coordinates": [
          -162.44920513917626,
          -63.40854279335868
        ]
      }
    }
  ]
}